GALAXY 25               
1 24812C 97026A   22066.00000000  .00000088  00000-0  00000-0 0   668
2 24812   3.4374  84.6652 0003600 266.2974 239.8372  1.00272236    14
GALAXY 25           [PM]
1 24812C 97026A   22068.98570602  .00000087  00000-0  00000-0 0   688
2 24812   3.4463  84.6401 0003565 269.6609 234.3070  1.00271328    13
GALAXY 25               
1 24812C 97026A   22069.00000000  .00000087  00000-0  00000-0 0   693
2 24812   3.4462  84.6399 0003610 268.9630 240.1642  1.00271429    17
INTELSAT 5              
1 24916C 97046A   22066.00000000  .00000219  00000-0  00000-0 0   661
2 24916   7.0116  61.7610 0003153 182.9315 119.6293  1.00134744    17
INTELSAT 5              
1 24916C 97046A   22069.00000000  .00000217  00000-0  00000-0 0   695
2 24916   7.0186  61.7467 0002892 182.8244 121.2714  1.00136213    13
GALAXY 11               
1 26038C 99071A   22066.00000000 -.00000072  00000-0  00000-0 0   666
2 26038   2.7458  89.0492 0000908 139.6540 202.8530  1.00271832    19
GALAXY 11               
1 26038C 99071A   22069.00000000 -.00000072  00000-0  00000-0 0   692
2 26038   2.7544  89.0126 0000843 140.8970 204.6125  1.00271972    13
INTELSAT 9          [PM]
1 26451C 00043A   22061.65370370 -.00000191  00000-0  00000-0 0   619
2 26451   6.9862  61.9669 0002915 216.5536  67.2210  1.00269204    16
INTELSAT 9              
1 26451C 00043A   22066.00000000 -.00000191  00000-0  00000-0 0   668
2 26451   6.9979  61.9025 0002153 315.4826  97.2839  1.00274047    17
INTELSAT 9              
1 26451C 00043A   22069.00000000 -.00000191  00000-0  00000-0 0   694
2 26451   7.0048  61.8926 0002464 317.6825  98.0473  1.00272742    16
INTELSAT 1R             
1 26608C 00072A   22066.00000000 -.00000047  00000-0  00000-0 0   664
2 26608   4.1990  80.8770 0001190 325.4354 275.4788  1.00271507    19
INTELSAT 1R             
1 26608C 00072A   22069.00000000 -.00000047  00000-0  00000-0 0   690
2 26608   4.2090  80.8570 0001105 323.0839 280.8212  1.00272020    10
INTELSAT 10             
1 26766C 01019A   22066.00000000  .00000127  00000-0  00000-0 0   669
2 26766   5.3371  74.2028 0003014 248.0090  20.2628  1.00272219    17
INTELSAT 10         [PM]
1 26766C 01019A   22068.80195602  .00000127  00000-0  00000-0 0   684
2 26766   5.3448  74.1784 0004317 268.9693 290.7963  1.00273351    11
INTELSAT 10             
1 26766C 01019A   22069.00000000  .00000127  00000-0  00000-0 0   695
2 26766   5.3453  74.1878 0003124 247.0615  24.2061  1.00269185    17
INTELSAT 901            
1 26824C 01024A   22066.00000000 -.00000112  00000-0  00000-0 0   665
2 26824   0.0281 256.2791 0000870  91.3473 149.5470  1.00271138    13
INTELSAT 901            
1 26824C 01024A   22069.00000000 -.00000112  00000-0  00000-0 0   691
2 26824   0.0169 239.5330 0000948 118.7455 141.8502  1.00271409    13
INTELSAT 902            
1 26900C 01039A   22066.00000000 -.00000192  00000-0  00000-0 0   664
2 26900   2.1486  90.0717 0003010 259.0159 125.4816  1.00273736    16
INTELSAT 902            
1 26900C 01039A   22069.00000000 -.00000192  00000-0  00000-0 0   690
2 26900   2.1576  90.0513 0003064 263.4828 124.0038  1.00272891    13
INTELSAT 902        [PM]
1 26900C 01039A   22073.90054398 -.00000192  00000-0  00000-0 0   738
2 26900   2.1675  90.0894 0003160 266.5115  89.9590  1.00273124    17
INTELSAT 904            
1 27380C 02007A   22066.00000000 -.00000123  00000-0  00000-0 0   667
2 27380   2.9812  86.9919 0002932 263.8442 144.3327  1.00277442    13
INTELSAT 904            
1 27380C 02007A   22069.00000000 -.00000123  00000-0  00000-0 0   693
2 27380   2.9902  86.9664 0002915 263.2000 147.9715  1.00272780    15
INTELSAT 904        [PM]
1 27380C 02007A   22072.86297454 -.00000123  00000-0  00000-0 0   726
2 27380   2.9985  86.9826 0002789 262.4469 103.1862  1.00272983    17
INTELSAT 905            
1 27438C 02027A   22066.00000000 -.00000094  00000-0  00000-0 0   660
2 27438   2.8037  87.7537 0002473 259.8961 152.5182  1.00272430    13
INTELSAT 905            
1 27438C 02027A   22069.00000000 -.00000094  00000-0  00000-0 0   696
2 27438   2.8126  87.7305 0002523 265.7424 149.6522  1.00272124    16
INTELSAT 905        [PM]
1 27438C 02027A   22071.85677083 -.00000094  00000-0  00000-0 0   716
2 27438   2.8220  81.1634 0002574 250.3109 122.9065  1.00274013    15
GALAXY 3C               
1 27445C 02030A   22066.00000000 -.00000131  00000-0  00000-0 0   664
2 27445   0.0076  42.7243 0002203 292.8052  94.0945  1.00269103    18
GALAXY 3C               
1 27445C 02030A   22069.00000000 -.00000062  00000-0  00000-0 0   693
2 27445   0.0391 342.2534 0001844 347.4132 102.9239  1.00271471    11
INTELSAT 906            
1 27513C 02041A   22066.00000000  .00000105  00000-0  00000-0 0   662
2 27513   1.8158  91.6483 0003838 269.0664 228.1084  1.00273856    17
INTELSAT 906        [PM]
1 27513C 02041A   22067.55325232  .00000105  00000-0  00000-0 0   671
2 27513   1.8207  91.6089 0003576 265.7182  72.1946  1.00271556    10
INTELSAT 906            
1 27513C 02041A   22069.00000000  .00000105  00000-0  00000-0 0   698
2 27513   1.8248  91.6125 0003827 269.7537 230.4117  1.00272069    12
GALAXY 12               
1 27715C 03013B   22066.00000000  .00000149  00000-0  00000-0 0   664
2 27715   3.0160  86.5791 0001892 250.4929  58.5975  1.00272511    10
GALAXY 12               
1 27715C 03013B   22069.00000000  .00000149  00000-0  00000-0 0   690
2 27715   3.0247  86.5516 0001919 249.5588  62.5213  1.00270633    14
GALAXY 12           [PM]
1 27715C 03013B   22074.61130787  .00000149  00000-0  00000-0 0   745
2 27715   3.0350  86.5647 0002677 270.6577 267.0134  1.00271648    10
GALAXY 23               
1 27854C 03034A   22066.00000000  .00000103  00000-0  00000-0 0   661
2 27854   0.0526 267.4262 0003128  82.2859  53.9487  1.00271334    16
GALAXY 23               
1 27854C 03034A   22069.00000000  .00000103  00000-0  00000-0 0   697
2 27854   0.0434 265.9564 0003199  87.8606  52.8035  1.00272224    17
GALAXY 23           [PM]
1 27854C 03034A   22074.08001157  .00000103  00000-0  00000-0 0   741
2 27854   0.0331 238.4935 0003196 108.0359  93.9152  1.00271708    10
GALAXY 13               
1 27954C 03044A   22066.00000000  .00000068  00000-0  00000-0 0   663
2 27954   0.0007 142.4151 0000436  95.1175 160.1149  1.00271162    18
GALAXY 13               
1 27954C 03044A   22069.00000000  .00000138  00000-0  00000-0 0   697
2 27954   0.0097 123.6802 0001101  94.7450 182.1817  1.00296652    19
GALAXY 13           [PM]
1 27954C 03044A   22070.79831019  .00000141  00000-0  00000-0 0   703
2 27954   0.0168 103.9369 0002475  95.0726 130.7972  1.00270492    17
INTELSAT 10-02          
1 28358C 04022A   22066.00000000  .00000079  00000-0  00000-0 0   661
2 28358   0.0509 274.1921 0000924  76.6251 172.8580  1.00271121    17
INTELSAT 10-02          
1 28358C 04022A   22069.00000000  .00000079  00000-0  00000-0 0   697
2 28358   0.0458 273.7575 0001037  73.2137 179.6662  1.00271398    14
GALAXY 28               
1 28702C 05022A   22066.00000000 -.00000098  00000-0  00000-0 0   667
2 28702   0.0365 304.7753 0002207  57.0894  73.8088  1.00269007    18
GALAXY 28               
1 28702C 05022A   22069.00000000 -.00000063  00000-0  00000-0 0   695
2 28702   0.0225 281.9937 0002173  72.7057  83.9390  1.00275608    12
GALAXY 28           [PM]
1 28702C 05022A   22069.00894676 -.00000095  00000-0  00000-0 0   690
2 28702   0.0229 282.6736 0002181  71.9513  87.2437  1.00275753    18
GALAXY 14               
1 28790C 05030A   22066.00000000  .00000246  00000-0  00000-0 0   667
2 28790   1.0041  93.1915 0002063 247.0825 217.2782  1.00272791    10
GALAXY 14               
1 28790C 05030A   22069.00000000  .00000246  00000-0  00000-0 0   693
2 28790   1.0129  93.1452 0002075 250.1966 217.1868  1.00274602    14
GALAXY 14           [PM]
1 28790C 05030A   22070.20347222  .00000246  00000-0  00000-0 0   709
2 28790   1.0162  93.1821 0002274 242.5391 299.2568  1.00269761    17
GALAXY 15               
1 28884C 05041A   22066.00000000  .00000166  00000-0  00000-0 0   664
2 28884   0.0454 316.7652 0001800  22.8240  52.0732  1.00272837    12
GALAXY 15           [PM]
1 28884C 05041A   22068.64178241  .00000146  00000-0  00000-0 0   689
2 28884   0.0389 331.7330 0001903   6.9746 286.6168  1.00270838    14
GALAXY 15               
1 28884C 05041A   22069.00000000  .00000167  00000-0  00000-0 0   691
2 28884   0.0386 329.4524 0001888   8.1592  57.0231  1.00270827    14
GALAXY 16               
1 29236C 06023A   22066.00000000 -.00000037  00000-0  00000-0 0   665
2 29236   0.0044 196.8610 0002758 143.0995  85.7028  1.00272816    14
GALAXY 16               
1 29236C 06023A   22069.00000000 -.00000037  00000-0  00000-0 0   691
2 29236   0.0024 149.5368 0002788 194.9798  84.1149  1.00271779    10
GALAXY 16           [PM]
1 29236C 06023A   22072.07063657 -.00000062  00000-0  00000-0 0   721
2 29236   0.0071 195.8964 0002857 152.1438 109.0457  1.00272412    16
GALAXY 17               
1 31307C 07016B   22066.00000000 -.00000155  00000-0  00000-0 0   661
2 31307   0.0003 118.0538 0003195 223.6168  92.0008  1.00272783    11
GALAXY 17           [PM]
1 31307C 07016B   22068.43725694 -.00000084  00000-0  00000-0 0   686
2 31307   0.0187  73.7488 0002979 251.9695 267.7683  1.00273471    18
GALAXY 17               
1 31307C 07016B   22069.00000000 -.00000084  00000-0  00000-0 0   698
2 31307   0.0150  88.2725 0003071 245.9979 102.3597  1.00273309    13
INTELSAT 11             
1 32253C 07044B   22066.00000000 -.00000186  00000-0  00000-0 0   667
2 32253   0.0001 146.8898 0001810 192.7675 142.0185  1.00272214    10
INTELSAT 11         [PM]
1 32253C 07044B   22068.90668982 -.00000178  00000-0  00000-0 0   680
2 32253   0.0104 112.7999 0001876 227.8089 110.3407  1.00274023    14
